STARLINK-1335           
1 45581U 20025BC  26068.31091840 -.00000616  00000+0 -90193-5 0  9991
2 45581  53.1576  76.8114 0001478  99.6562 260.4606 15.29356205325479
HAWK-11A                
1 62382U 24247F   26068.51231358  .00009457  00000+0  34106-3 0  9991
2 62382  44.9941 114.3328 0005466 327.3713  32.6832 15.28849427 67741
