[{"OBJECT_NAME":"STARLINK-1335","OBJECT_ID":"2020-025BC","EPOCH":"2026-03-09T07:27:43.349760","MEAN_MOTION":15.29356205,"ECCENTRICITY":0.00014789,"INCLINATION":53.1576,"RA_OF_ASC_NODE":76.8114,"ARG_OF_PERICENTER":99.6562,"MEAN_ANOMALY":260.4606,"EPHEMERIS_TYPE":0,"CLASSIFICATION_TYPE":"U","NORAD_CAT_ID":45581,"ELEMENT_SET_NO":999,"REV_AT_EPOCH":32547,"BSTAR":-9.019254e-6,"MEAN_MOTION_DOT":-6.16e-6,"MEAN_MOTION_DDOT":0},{"OBJECT_NAME":"HAWK-11A","OBJECT_ID":"2024-247F","EPOCH":"2026-03-09T12:17:43.893312","MEAN_MOTION":15.28849427,"ECCENTRICITY":0.00054663,"INCLINATION":44.9941,"RA_OF_ASC_NODE":114.3328,"ARG_OF_PERICENTER":327.3713,"MEAN_ANOMALY":32.6832,"EPHEMERIS_TYPE":0,"CLASSIFICATION_TYPE":"U","NORAD_CAT_ID":62382,"ELEMENT_SET_NO":999,"REV_AT_EPOCH":6774,"BSTAR":0.00034106017,"MEAN_MOTION_DOT":9.457e-5,"MEAN_MOTION_DDOT":0}]
